[{"OBJECT_NAME":"CLOUDSAT","OBJECT_ID":"2006-016A","EPOCH":"2026-03-15T05:38:32.255520","MEAN_MOTION":14.86188227,"ECCENTRICITY":0.00039636,"INCLINATION":98.4045,"RA_OF_ASC_NODE":106.2792,"ARG_OF_PERICENTER":277.9431,"MEAN_ANOMALY":82.1332,"EPHEMERIS_TYPE":0,"CLASSIFICATION_TYPE":"U","NORAD_CAT_ID":29107,"ELEMENT_SET_NO":999,"REV_AT_EPOCH":6055,"BSTAR":0.00014395439,"MEAN_MOTION_DOT":1.203e-5,"MEAN_MOTION_DDOT":0},{"OBJECT_NAME":"CALIPSO","OBJECT_ID":"2006-016B","EPOCH":"2026-03-15T07:35:24.849312","MEAN_MOTION":14.69154079,"ECCENTRICITY":0.00011263,"INCLINATION":98.4529,"RA_OF_ASC_NODE":86.769,"ARG_OF_PERICENTER":109.9102,"MEAN_ANOMALY":250.2224,"EPHEMERIS_TYPE":0,"CLASSIFICATION_TYPE":"U","NORAD_CAT_ID":29108,"ELEMENT_SET_NO":999,"REV_AT_EPOCH":5927,"BSTAR":0.00023598906,"MEAN_MOTION_DOT":1.336e-5,"MEAN_MOTION_DDOT":0},{"OBJECT_NAME":"HINODE (SOLAR-B)","OBJECT_ID":"2006-041A","EPOCH":"2026-03-15T07:05:06.637344","MEAN_MOTION":14.68483418,"ECCENTRICITY":0.00165699,"INCLINATION":98.0618,"RA_OF_ASC_NODE":91.8121,"ARG_OF_PERICENTER":222.6274,"MEAN_ANOMALY":137.3647,"EPHEMERIS_TYPE":0,"CLASSIFICATION_TYPE":"U","NORAD_CAT_ID":29479,"ELEMENT_SET_NO":999,"REV_AT_EPOCH":4109,"BSTAR":0.00012834928,"MEAN_MOTION_DOT":6.96e-6,"MEAN_MOTION_DDOT":0},{"OBJECT_NAME":"METOP-A","OBJECT_ID":"2006-044A","EPOCH":"2026-03-15T06:54:24.000192","MEAN_MOTION":14.75601251,"ECCENTRICITY":0.01749621,"INCLINATION":98.3244,"RA_OF_ASC_NODE":178.1169,"ARG_OF_PERICENTER":9.1689,"MEAN_ANOMALY":51.3552,"EPHEMERIS_TYPE":0,"CLASSIFICATION_TYPE":"U","NORAD_CAT_ID":29499,"ELEMENT_SET_NO":999,"REV_AT_EPOCH":1160,"BSTAR":0.00020046903,"MEAN_MOTION_DOT":1.688e-5,"MEAN_MOTION_DDOT":0},{"OBJECT_NAME":"SHIJIAN-6 02B (SJ-6 02B)","OBJECT_ID":"2006-046B","EPOCH":"2026-03-15T07:08:41.777664","MEAN_MOTION":15.01030367,"ECCENTRICITY":0.00137644,"INCLINATION":97.7079,"RA_OF_ASC_NODE":103.9877,"ARG_OF_PERICENTER":25.9808,"MEAN_ANOMALY":334.2104,"EPHEMERIS_TYPE":0,"CLASSIFICATION_TYPE":"U","NORAD_CAT_ID":29506,"ELEMENT_SET_NO":999,"REV_AT_EPOCH":5665,"BSTAR":0.00022511277,"MEAN_MOTION_DOT":2.82e-5,"MEAN_MOTION_DDOT":0},{"OBJECT_NAME":"DMSP 5D-3 F17 (USA 191)","OBJECT_ID":"2006-050A","EPOCH":"2026-03-15T06:20:36.293280","MEAN_MOTION":14.14966797,"ECCENTRICITY":0.00094483,"INCLINATION":98.7413,"RA_OF_ASC_NODE":82.7462,"ARG_OF_PERICENTER":330.2751,"MEAN_ANOMALY":29.7885,"EPHEMERIS_TYPE":0,"CLASSIFICATION_TYPE":"U","NORAD_CAT_ID":29522,"ELEMENT_SET_NO":999,"REV_AT_EPOCH":99913,"BSTAR":0.00012114685,"MEAN_MOTION_DOT":1.91e-6,"MEAN_MOTION_DDOT":0},{"OBJECT_NAME":"LAPAN-TUBSAT","OBJECT_ID":"2007-001A","EPOCH":"2026-03-15T05:56:11.064192","MEAN_MOTION":14.85838825,"ECCENTRICITY":0.001316,"INCLINATION":98.134,"RA_OF_ASC_NODE":71.3689,"ARG_OF_PERICENTER":127.024,"MEAN_ANOMALY":233.2181,"EPHEMERIS_TYPE":0,"CLASSIFICATION_TYPE":"U","NORAD_CAT_ID":29709,"ELEMENT_SET_NO":999,"REV_AT_EPOCH":3720,"BSTAR":3.4476411e-5,"MEAN_MOTION_DOT":2.43e-6,"MEAN_MOTION_DDOT":0},{"OBJECT_NAME":"HAIYANG-1B","OBJECT_ID":"2007-010A","EPOCH":"2026-03-15T05:47:31.586784","MEAN_MOTION":14.31001418,"ECCENTRICITY":0.00145619,"INCLINATION":98.3433,"RA_OF_ASC_NODE":59.7621,"ARG_OF_PERICENTER":117.2452,"MEAN_ANOMALY":243.0218,"EPHEMERIS_TYPE":0,"CLASSIFICATION_TYPE":"U","NORAD_CAT_ID":31113,"ELEMENT_SET_NO":999,"REV_AT_EPOCH":98719,"BSTAR":6.1829243e-5,"MEAN_MOTION_DOT":1.21e-6,"MEAN_MOTION_DDOT":0},{"OBJECT_NAME":"BEIDOU-2 M1","OBJECT_ID":"2007-011A","EPOCH":"2026-03-10T03:28:02.796384","MEAN_MOTION":1.77349392,"ECCENTRICITY":0.00023264,"INCLINATION":50.9679,"RA_OF_ASC_NODE":222.5681,"ARG_OF_PERICENTER":33.8688,"MEAN_ANOMALY":326.1041,"EPHEMERIS_TYPE":0,"CLASSIFICATION_TYPE":"U","NORAD_CAT_ID":31115,"ELEMENT_SET_NO":999,"REV_AT_EPOCH":7439,"BSTAR":0,"MEAN_MOTION_DOT":2.5e-7,"MEAN_MOTION_DDOT":0},{"OBJECT_NAME":"CAPE-1","OBJECT_ID":"2007-012P","EPOCH":"2026-03-15T04:10:40.269216","MEAN_MOTION":14.64614124,"ECCENTRICITY":0.00841148,"INCLINATION":98.4372,"RA_OF_ASC_NODE":46.2113,"ARG_OF_PERICENTER":5.638,"MEAN_ANOMALY":354.5749,"EPHEMERIS_TYPE":0,"CLASSIFICATION_TYPE":"U","NORAD_CAT_ID":31130,"ELEMENT_SET_NO":999,"REV_AT_EPOCH":459,"BSTAR":0.0004592065,"MEAN_MOTION_DOT":2.514e-5,"MEAN_MOTION_DDOT":0},{"OBJECT_NAME":"CBERS 2B","OBJECT_ID":"2007-042A","EPOCH":"2026-03-15T02:32:26.722176","MEAN_MOTION":14.41421963,"ECCENTRICITY":0.0029825,"INCLINATION":98.3832,"RA_OF_ASC_NODE":20.4464,"ARG_OF_PERICENTER":257.8673,"MEAN_ANOMALY":113.4057,"EPHEMERIS_TYPE":0,"CLASSIFICATION_TYPE":"U","NORAD_CAT_ID":32062,"ELEMENT_SET_NO":999,"REV_AT_EPOCH":97113,"BSTAR":0.00010893565,"MEAN_MOTION_DOT":3.12e-6,"MEAN_MOTION_DDOT":0},{"OBJECT_NAME":"COSMO-SKYMED 2","OBJECT_ID":"2007-059A","EPOCH":"2026-03-15T07:42:49.048992","MEAN_MOTION":14.82150761,"ECCENTRICITY":0.00013267,"INCLINATION":97.8868,"RA_OF_ASC_NODE":259.276,"ARG_OF_PERICENTER":84.5698,"MEAN_ANOMALY":275.5667,"EPHEMERIS_TYPE":0,"CLASSIFICATION_TYPE":"U","NORAD_CAT_ID":32376,"ELEMENT_SET_NO":999,"REV_AT_EPOCH":98809,"BSTAR":7.6234108e-5,"MEAN_MOTION_DOT":5.55e-6,"MEAN_MOTION_DDOT":0},{"OBJECT_NAME":"CARTOSAT-2A","OBJECT_ID":"2008-021A","EPOCH":"2026-03-15T06:55:25.482432","MEAN_MOTION":14.79111886,"ECCENTRICITY":0.0013135,"INCLINATION":97.777,"RA_OF_ASC_NODE":126.1547,"ARG_OF_PERICENTER":60.1514,"MEAN_ANOMALY":300.1001,"EPHEMERIS_TYPE":0,"CLASSIFICATION_TYPE":"U","NORAD_CAT_ID":32783,"ELEMENT_SET_NO":999,"REV_AT_EPOCH":96492,"BSTAR":0.00011300432,"MEAN_MOTION_DOT":7.88e-6,"MEAN_MOTION_DDOT":0},{"OBJECT_NAME":"CUTE-1.7+APD II (CO-65)","OBJECT_ID":"2008-021C","EPOCH":"2026-03-15T05:15:59.698944","MEAN_MOTION":15.08460261,"ECCENTRICITY":0.00089849,"INCLINATION":97.8207,"RA_OF_ASC_NODE":53.7902,"ARG_OF_PERICENTER":0.4138,"MEAN_ANOMALY":359.7095,"EPHEMERIS_TYPE":0,"CLASSIFICATION_TYPE":"U","NORAD_CAT_ID":32785,"ELEMENT_SET_NO":999,"REV_AT_EPOCH":97102,"BSTAR":0.00051149152,"MEAN_MOTION_DOT":7.912e-5,"MEAN_MOTION_DDOT":0},{"OBJECT_NAME":"SEEDS II (CO-66)","OBJECT_ID":"2008-021J","EPOCH":"2026-03-14T23:01:46.562880","MEAN_MOTION":15.29337445,"ECCENTRICITY":6.41e-5,"INCLINATION":97.7514,"RA_OF_ASC_NODE":67.6101,"ARG_OF_PERICENTER":328.694,"MEAN_ANOMALY":31.4261,"EPHEMERIS_TYPE":0,"CLASSIFICATION_TYPE":"U","NORAD_CAT_ID":32791,"ELEMENT_SET_NO":999,"REV_AT_EPOCH":97287,"BSTAR":0.00086115435,"MEAN_MOTION_DOT":0.00024478,"MEAN_MOTION_DDOT":0},{"OBJECT_NAME":"YUBILEINY (RS30)","OBJECT_ID":"2008-025A","EPOCH":"2026-03-15T06:15:39.282912","MEAN_MOTION":12.43176218,"ECCENTRICITY":0.00197406,"INCLINATION":82.5006,"RA_OF_ASC_NODE":53.8559,"ARG_OF_PERICENTER":153.1564,"MEAN_ANOMALY":207.0542,"EPHEMERIS_TYPE":0,"CLASSIFICATION_TYPE":"U","NORAD_CAT_ID":32953,"ELEMENT_SET_NO":999,"REV_AT_EPOCH":80802,"BSTAR":0.00032359336,"MEAN_MOTION_DOT":5.5e-7,"MEAN_MOTION_DDOT":0},{"OBJECT_NAME":"FENGYUN 3A","OBJECT_ID":"2008-026A","EPOCH":"2026-03-15T02:12:34.403040","MEAN_MOTION":14.19548161,"ECCENTRICITY":0.00095246,"INCLINATION":98.6802,"RA_OF_ASC_NODE":16.7274,"ARG_OF_PERICENTER":44.2006,"MEAN_ANOMALY":315.993,"EPHEMERIS_TYPE":0,"CLASSIFICATION_TYPE":"U","NORAD_CAT_ID":32958,"ELEMENT_SET_NO":999,"REV_AT_EPOCH":92205,"BSTAR":7.0173147e-5,"MEAN_MOTION_DOT":1.05e-6,"MEAN_MOTION_DDOT":0},{"OBJECT_NAME":"HUANJING 1A (HJ-1A)","OBJECT_ID":"2008-041A","EPOCH":"2026-03-15T07:12:11.098944","MEAN_MOTION":14.83740671,"ECCENTRICITY":0.00207088,"INCLINATION":97.6638,"RA_OF_ASC_NODE":63.8126,"ARG_OF_PERICENTER":86.508,"MEAN_ANOMALY":273.8503,"EPHEMERIS_TYPE":0,"CLASSIFICATION_TYPE":"U","NORAD_CAT_ID":33320,"ELEMENT_SET_NO":999,"REV_AT_EPOCH":94448,"BSTAR":0.00018875792,"MEAN_MOTION_DOT":1.516e-5,"MEAN_MOTION_DDOT":0},{"OBJECT_NAME":"HUANJING 1B (HJ-1B)","OBJECT_ID":"2008-041B","EPOCH":"2026-03-15T07:05:56.044320","MEAN_MOTION":14.83120828,"ECCENTRICITY":0.00375271,"INCLINATION":97.6487,"RA_OF_ASC_NODE":67.256,"ARG_OF_PERICENTER":129.751,"MEAN_ANOMALY":230.702,"EPHEMERIS_TYPE":0,"CLASSIFICATION_TYPE":"U","NORAD_CAT_ID":33321,"ELEMENT_SET_NO":999,"REV_AT_EPOCH":94449,"BSTAR":0.00019298705,"MEAN_MOTION_DOT":1.54e-5,"MEAN_MOTION_DDOT":0},{"OBJECT_NAME":"SHIJIAN-6 03A (SJ-6 03A)","OBJECT_ID":"2008-053A","EPOCH":"2026-03-15T07:09:28.258272","MEAN_MOTION":15.16155741,"ECCENTRICITY":0.00110085,"INCLINATION":97.8529,"RA_OF_ASC_NODE":104.3741,"ARG_OF_PERICENTER":343.3272,"MEAN_ANOMALY":16.7597,"EPHEMERIS_TYPE":0,"CLASSIFICATION_TYPE":"U","NORAD_CAT_ID":33408,"ELEMENT_SET_NO":999,"REV_AT_EPOCH":94873,"BSTAR":0.00058530075,"MEAN_MOTION_DOT":0.00011245,"MEAN_MOTION_DDOT":0},{"OBJECT_NAME":"SHIJIAN-6 03B (SJ-6 03B)","OBJECT_ID":"2008-053B","EPOCH":"2026-03-15T07:12:50.518080","MEAN_MOTION":15.03922108,"ECCENTRICITY":0.00195919,"INCLINATION":97.8668,"RA_OF_ASC_NODE":92.6253,"ARG_OF_PERICENTER":4.5259,"MEAN_ANOMALY":355.614,"EPHEMERIS_TYPE":0,"CLASSIFICATION_TYPE":"U","NORAD_CAT_ID":33409,"ELEMENT_SET_NO":999,"REV_AT_EPOCH":94863,"BSTAR":0.0003573371,"MEAN_MOTION_DOT":4.883e-5,"MEAN_MOTION_DDOT":0},{"OBJECT_NAME":"CHUANGXIN 1-02 (CX-1-02)","OBJECT_ID":"2008-056B","EPOCH":"2026-03-15T08:05:39.721920","MEAN_MOTION":14.30132557,"ECCENTRICITY":0.00153031,"INCLINATION":98.625,"RA_OF_ASC_NODE":101.4989,"ARG_OF_PERICENTER":58.5304,"MEAN_ANOMALY":301.7371,"EPHEMERIS_TYPE":0,"CLASSIFICATION_TYPE":"U","NORAD_CAT_ID":33434,"ELEMENT_SET_NO":999,"REV_AT_EPOCH":90520,"BSTAR":0.00010948278,"MEAN_MOTION_DOT":2.4e-6,"MEAN_MOTION_DDOT":0},{"OBJECT_NAME":"STARS (KUKAI)","OBJECT_ID":"2009-002G","EPOCH":"2026-03-15T06:33:59.865984","MEAN_MOTION":14.95005769,"ECCENTRICITY":0.00100222,"INCLINATION":98.1468,"RA_OF_ASC_NODE":17.8503,"ARG_OF_PERICENTER":113.9806,"MEAN_ANOMALY":246.2464,"EPHEMERIS_TYPE":0,"CLASSIFICATION_TYPE":"U","NORAD_CAT_ID":33498,"ELEMENT_SET_NO":999,"REV_AT_EPOCH":92444,"BSTAR":0.00045685729,"MEAN_MOTION_DOT":4.939e-5,"MEAN_MOTION_DDOT":0}]
